     2.100          NAVIGATION                              RINEX VERSION / TYPE
fic2rin                                 12/04/2008 04:28:45 PGM / RUN BY / DATE
                                                            END OF HEADER
28 08 12  3 15 59 44.0 -.237040221691D-04 -.113686837722D-12  .000000000000D+00
     .300000000000D+01 -.847187500000D+02  .422231873367D-08 -.236168627442D+01
    -.446662306786D-05  .142819837201D-01  .834465026855D-05  .515364122581D+04
     .316784000000D+06  .160187482834D-06  .670677151664D+00 -.819563865662D-07
     .965237443408D+00  .216937500000D+03 -.208200071866D+01 -.764460414273D-08
     .194293807403D-09  .100000000000D+01  .150800000000D+04  .000000000000D+00
     .240000000000D+01  .000000000000D+00 -.102445483208D-07  .300000000000D+01
     .314496000000D+06  .400000000000D+01
14 08 12  3 17 59 44.0 -.186615623534D-03  .488853402203D-11  .000000000000D+00
     .120000000000D+02  .645937500000D+02  .379444376810D-08 -.250735067775D+01
     .344216823578D-05  .441008305643D-02  .569783151150D-05  .515376186752D+04
     .323984000000D+06  .000000000000D+00 -.141823960730D+01 -.372529029846D-07
     .988761976579D+00  .285906250000D+03 -.213080654334D+01 -.772853621027D-08
     .149649090628D-09  .100000000000D+01  .150800000000D+04  .000000000000D+00
     .240000000000D+01  .000000000000D+00 -.931322574615D-08  .120000000000D+02
     .316806000000D+06  .400000000000D+01
28 08 12  3 17 59 44.0 -.237044878304D-04 -.113686837722D-12  .000000000000D+00
     .400000000000D+01 -.806562500000D+02  .432482300338D-08 -.131152698511D+01
    -.399351119995D-05  .142820915207D-01  .839121639729D-05  .515364013290D+04
     .323984000000D+06  .312924385071D-06  .670622628707D+00  .258907675743D-06
     .965237418539D+00  .216343750000D+03 -.208196157536D+01 -.790675791963D-08
     .257153568621D-10  .100000000000D+01  .150800000000D+04  .000000000000D+00
     .240000000000D+01  .000000000000D+00 -.102445483208D-07  .400000000000D+01
     .316806000000D+06  .400000000000D+01
 2 08 12  3 18  0  0.0  .169251114130D-03 -.227373675443D-11  .000000000000D+00
     .210000000000D+02  .169062500000D+02  .513342811360D-08 -.279810146644D+01
     .985339283943D-06  .883630185854D-02  .642240047455D-05  .515358018875D+04
     .324000000000D+06 -.111758708954D-06  .272533755965D+01  .875443220139D-07
     .942385521934D+00  .245750000000D+03  .267975757173D+01 -.816569727693D-08
    -.116433421348D-09  .100000000000D+01  .150800000000D+04  .000000000000D+00
     .240000000000D+01  .000000000000D+00 -.172294676304D-07  .210000000000D+02
     .316806000000D+06  .400000000000D+01
 3 08 12  3 18  0  0.0  .319739338011D-03  .522959453519D-11  .000000000000D+00
     .135000000000D+03  .465625000000D+01  .528736309704D-08 -.312399172295D+01
     .763684511185D-07  .115023438120D-01  .932812690735D-05  .515371865273D+04
     .324000000000D+06 -.372529029846D-08  .157937935202D+01 -.149011611938D-06
     .925650790945D+00  .179906250000D+03  .880884267406D+00 -.814355349740D-08
     .373586989969D-09  .100000000000D+01  .150800000000D+04  .000000000000D+00
     .340000000000D+01  .000000000000D+00 -.419095158577D-08  .135000000000D+03
     .316806000000D+06  .400000000000D+01
 4 08 12  3 18  0  0.0 -.252649653703D-03 -.125055521494D-10  .000000000000D+00
     .920000000000D+02  .128125000000D+02  .528986320118D-08  .592559020290D-01
     .750645995140D-06  .855958310422D-02  .619143247604D-05  .515362417793D+04
     .324000000000D+06  .745058059692D-07  .274392975333D+01  .875443220139D-07
     .941656601057D+00  .247718750000D+03  .443277130695D+00 -.847035282419D-08
    -.162506769059D-09  .100000000000D+01  .150800000000D+04  .000000000000D+00
     .240000000000D+01  .000000000000D+00 -.605359673500D-08  .920000000000D+02
     .316806000000D+06  .400000000000D+01
 5 08 12  3 18  0  0.0 -.396915245801D-03  .704858393874D-11  .000000000000D+00
     .430000000000D+02 -.734062500000D+02  .488020328006D-08 -.366441478158D+00
    -.389479100704D-05  .936415058095D-02  .815652310848D-05  .515366212463D+04
     .324000000000D+06 -.763684511185D-07  .547797375582D+00  .987201929092D-07
     .944533158820D+00  .218906250000D+03  .129587181451D+01 -.836784855448D-08
     .757174396496D-10  .100000000000D+01  .150800000000D+04  .000000000000D+00
     .240000000000D+01  .000000000000D+00 -.419095158577D-08  .430000000000D+02
     .316806000000D+06  .400000000000D+01
 6 08 12  3 18  0  0.0  .130503438413D-03 -.864019966684D-11  .000000000000D+00
     .630000000000D+02  .105937500000D+02  .525057585042D-08 -.560647115488D+00
     .471249222755D-06  .559671770316D-02  .914931297302D-05  .515371154022D+04
     .324000000000D+06 -.102445483208D-06  .164557428850D+01  .689178705215D-07
     .933170407847D+00  .191156250000D+03 -.151578331876D+01 -.838142054838D-08
     .392873507616D-09  .100000000000D+01  .150800000000D+04  .000000000000D+00
     .240000000000D+01  .000000000000D+00 -.465661287308D-08  .630000000000D+02
     .316806000000D+06  .400000000000D+01
 7 08 12  3 18  0  0.0  .234767794609D-04  .113686837722D-12  .000000000000D+00
     .950000000000D+02 -.329687500000D+02  .458876256895D-08  .172960469796D+01
    -.162795186043D-05  .232522247825D-02  .337138772011D-05  .515368429947D+04
     .324000000000D+06 -.298023223877D-07 -.404826096186D+00  .316649675369D-07
     .965240846156D+00  .316531250000D+03  .287021711327D+01 -.829177395710D-08
    -.535736601294D-11  .100000000000D+01  .150800000000D+04  .000000000000D+00
     .340000000000D+01  .000000000000D+00 -.107102096081D-07  .950000000000D+02
     .316806000000D+06  .400000000000D+01
 8 08 12  3 18  0  0.0 -.180570874363D-03 -.159161572810D-11  .000000000000D+00
     .870000000000D+02 -.353750000000D+02  .405802617594D-08  .103765772976D+01
    -.179931521416D-05  .105964305112D-01  .362843275070D-05  .515370181656D+04
     .324000000000D+06  .968575477600D-07 -.348104590011D+00  .193715095520D-06
     .986446323552D+00  .319968750000D+03  .295290603125D+01 -.804819238237D-08
    -.642883921553D-10  .100000000000D+01  .150800000000D+04  .000000000000D+00
     .340000000000D+01  .000000000000D+00 -.419095158577D-08  .870000000000D+02
     .316806000000D+06  .400000000000D+01
 9 08 12  3 18  0  0.0  .278959050775D-04  .181898940355D-11  .000000000000D+00
     .250000000000D+02 -.287500000000D+02  .443875632059D-08  .745170723557D+00
    -.166893005371D-05  .200979221845D-01  .400654971600D-05  .515365880394D+04
     .324000000000D+06 -.232830643654D-06 -.440105628166D+00 -.447034835815D-07
     .974204598732D+00  .313781250000D+03  .145229825222D+01 -.853178395448D-08
    -.739316509786D-10  .100000000000D+01  .150800000000D+04  .000000000000D+00
     .240000000000D+01  .000000000000D+00 -.558793544769D-08  .250000000000D+02
     .316806000000D+06  .400000000000D+01
10 08 12  3 18  0  0.0 -.789994373918D-05 -.454747350886D-12  .000000000000D+00
     .101000000000D+03  .270625000000D+02  .438482550273D-08 -.186069650324D+01
     .130757689476D-05  .826912932098D-02  .871904194355D-05  .515374535179D+04
     .324000000000D+06  .149011611938D-07 -.247495435688D+01 -.130385160446D-06
     .961115512262D+00  .211250000000D+03  .563238853342D+00 -.785854162552D-08
    -.248938940735D-09  .100000000000D+01  .150800000000D+04  .000000000000D+00
     .340000000000D+01  .000000000000D+00 -.279396772385D-08  .101000000000D+03
     .316806000000D+06  .400000000000D+01
11 08 12  3 18  0  0.0  .141393393278D-04 -.909494701773D-12  .000000000000D+00
     .480000000000D+02  .161562500000D+02  .657491672882D-08  .154436032625D+01
     .935047864914D-06  .897993892431D-02  .616908073425D-05  .515365417099D+04
     .324000000000D+06 -.147148966789D-06  .253411930198D+01  .115483999252D-06
     .890201311772D+00  .223875000000D+03  .656899485746D+00 -.906073455882D-08
    -.939324840936D-10  .100000000000D+01  .150800000000D+04  .000000000000D+00
     .240000000000D+01  .000000000000D+00 -.121071934700D-07  .480000000000D+02
     .316806000000D+06  .400000000000D+01
12 08 12  3 18  0  0.0 -.336463563144D-03  .272848410532D-11  .000000000000D+00
     .134000000000D+03 -.776875000000D+02  .433518057767D-08  .192477326308D+01
    -.413693487644D-05  .300401751883D-02  .851973891258D-05  .515377401352D+04
     .324000000000D+06  .409781932831D-07  .645528804294D+00  .298023223877D-07
     .965509225792D+00  .220500000000D+03 -.840011663137D+00 -.786604193793D-08
     .510735559900D-10  .100000000000D+01  .150800000000D+04  .000000000000D+00
     .340000000000D+01  .000000000000D+00 -.116415321827D-07  .134000000000D+03
     .316806000000D+06  .400000000000D+01
15 08 12  3 18  0  0.0 -.220908317715D-03 -.602540239925D-11  .000000000000D+00
     .340000000000D+02  .645000000000D+02  .455840416154D-08 -.180575908564D+01
     .344216823578D-05  .123666506261D-02  .641867518425D-05  .515373820496D+04
     .324000000000D+06  .558793544769D-08 -.146525513625D+01  .186264514923D-07
     .956980553830D+00  .256000000000D+03 -.943439258901D+00 -.817962642856D-08
     .135005623526D-09  .100000000000D+01  .150800000000D+04  .000000000000D+00
     .240000000000D+01  .000000000000D+00 -.977888703346D-08  .340000000000D+02
     .316806000000D+06  .400000000000D+01
16 08 12  3 18  0  0.0  .913548283279D-04 -.250111042988D-11  .000000000000D+00
     .330000000000D+02 -.744375000000D+02  .427553523606D-08 -.626066651263D+00
    -.401772558689D-05  .480154331308D-02  .892765820026D-05  .515372210884D+04
     .324000000000D+06  .558793544769D-08  .662198799695D+00 -.875443220139D-07
     .967065286402D+00  .208468750000D+03 -.385001920670D+00 -.793961643118D-08
     .725030200418D-10  .100000000000D+01  .150800000000D+04  .000000000000D+00
     .240000000000D+01  .000000000000D+00 -.977888703346D-08  .330000000000D+02
     .316806000000D+06  .400000000000D+01
